NORAD_CAT_ID,OBJECT_NAME,OBJECT_TYPE,EPOCH,MEAN_MOTION,ECCENTRICITY,INCLINATION,RA_OF_ASC_NODE,ARG_OF_PERICENTER,MEAN_ANOMALY,BSTAR,MEAN_MOTION_DOT,MEAN_MOTION_DDOT,TLE_LINE0,TLE_LINE1,TLE_LINE2,SEMIMAJOR_AXIS,PERIOD,APOGEE,PERIGEE,DECAYED
52574.0,STARLINK-3901,PAYLOAD,2023-09-17 02:55:29,15.08842288,0.0001302,53.2163,219.884,95.9645,264.1496,4.6228e-05,4.48e-06,0.0,0 STARLINK-3901,1 52574U 22051AQ  23260.12186829  .00000448  00000-0  46228-4 0  9995,2 52574  53.2163 219.8840 0001302  95.9645 264.1496 15.08842288 75090,6917.873,95.437,540.639,538.838,0.0
52574.0,STARLINK-3901,PAYLOAD,2023-09-17 07:41:38,15.08847192,0.0001258,53.2164,218.9913,93.4069,266.7067,9.2201e-05,1.18e-05,0.0,0 STARLINK-3901,1 52574U 22051AQ  23260.32058427  .00001180  00000-0  92201-4 0  9995,2 52574  53.2164 218.9913 0001258  93.4069 266.7067 15.08847192 75052,6917.858,95.437,540.594,538.853,0.0
52574.0,STARLINK-3901,PAYLOAD,2023-09-18 04:21:39,15.08842738,0.0001746,53.2173,215.1277,111.7676,248.3502,4.6845e-05,4.58e-06,0.0,0 STARLINK-3901,1 52574U 22051AQ  23261.18170893  .00000458  00000-0  46845-4 0  9992,2 52574  53.2173 215.1277 0001746 111.7676 248.3502 15.08842738 75257,6917.872,95.437,540.945,538.529,0.0
52574.0,STARLINK-3901,PAYLOAD,2023-09-18 20:15:31,15.08844403,0.0001421,53.2166,212.1535,111.1661,248.9483,3.7016e-05,3.01e-06,0.0,0 STARLINK-3901,1 52574U 22051AQ  23261.84410955  .00000301  00000-0  37016-4 0  9998,2 52574  53.2166 212.1535 0001421 111.1661 248.9483 15.08844403 75289,6917.867,95.437,540.715,538.749,0.0
52574.0,STARLINK-3901,PAYLOAD,2023-09-19 04:12:26,15.08853635,0.0001388,53.2165,210.6665,108.413,251.7013,0.0001215,1.647e-05,0.0,0 STARLINK-3901,1 52574U 22051AQ  23262.17530157  .00001647  00000-0  12150-3 0  9997,2 52574  53.2165 210.6665 0001388 108.4130 251.7013 15.08853635 75409,6917.839,95.437,540.664,538.744,0.0
52574.0,STARLINK-3901,PAYLOAD,2023-09-20 04:03:13,15.08845585,0.0001444,53.2161,206.206,91.0366,269.0792,0.00011503,1.543e-05,0.0,0 STARLINK-3901,1 52574U 22051AQ  23263.16890666  .00001543  00000-0  11503-3 0  9997,2 52574  53.2161 206.2060 0001444  91.0366 269.0792 15.08845585 75553,6917.863,95.437,540.727,538.729,0.0
52574.0,STARLINK-3901,PAYLOAD,2023-09-20 13:35:33,15.08828097,0.0001577,53.2158,204.4214,87.9595,272.1578,-9.6825e-05,-1.828e-05,0.0,0 STARLINK-3901,1 52574U 22051AQ  23263.56635636 -.00001828  00000-0 -96825-4 0  9994,2 52574  53.2158 204.4214 0001577  87.9595 272.1578 15.08828097 75540,6917.917,95.438,540.873,538.691,0.0
52574.0,STARLINK-3901,PAYLOAD,2023-09-20 19:57:06,15.08827976,0.0001926,53.2166,203.2304,84.606,275.5152,-0.00018768,-3.273e-05,0.0,0 STARLINK-3901,1 52574U 22051AQ  23263.83132086 -.00003273  00000-0 -18768-3 0  9990,2 52574  53.2166 203.2304 0001926  84.6060 275.5152 15.08827976 75589,6917.917,95.438,541.115,538.45,0.0
52574.0,STARLINK-3901,PAYLOAD,2023-09-21 02:18:39,15.08831248,0.000161,53.2175,202.0407,87.8235,272.2941,-0.00012352,-2.253e-05,0.0,0 STARLINK-3901,1 52574U 22051AQ  23264.09628622 -.00002253  00000-0 -12352-3 0  9995,2 52574  53.2175 202.0407 0001610  87.8235 272.2941 15.08831248 75621,6917.907,95.438,540.886,538.658,0.0
52574.0,STARLINK-3901,PAYLOAD,2023-09-22 02:09:24,15.08850939,0.0001456,53.2172,197.5806,95.0519,265.064,0.00014833,2.074e-05,0.0,0 STARLINK-3901,1 52574U 22051AQ  23265.08987007  .00002074  00000-0  14833-3 0  9995,2 52574  53.2172 197.5806 0001456  95.0519 265.0640 15.08850939 75841,6917.847,95.437,540.719,538.705,0.0
52574.0,STARLINK-3901,PAYLOAD,2023-09-23 02:00:12,15.08841434,0.0001346,53.2169,193.1214,91.3464,268.7683,0.00030077,4.502e-05,0.0,0 STARLINK-3901,1 52574U 22051AQ  23266.08347583  .00004502  00000-0  30077-3 0  9991,2 52574  53.2169 193.1214 0001346  91.3464 268.7683 15.08841434 75991,6917.876,95.437,540.672,538.81,0.0
52574.0,STARLINK-3901,PAYLOAD,2023-09-23 05:10:58,15.08851812,0.0001324,53.2156,192.5259,81.7656,278.3486,0.00030067,4.502e-05,0.0,0 STARLINK-3901,1 52574U 22051AQ  23266.21595415  .00004502  00000-0  30067-3 0  9994,2 52574  53.2156 192.5259 0001324  81.7656 278.3486 15.08851812 75945,6917.844,95.437,540.625,538.793,0.0
52574.0,STARLINK-3901,PAYLOAD,2023-09-24 01:50:59,15.08846264,0.0001529,53.2164,188.6577,103.6854,256.4308,-9.1658e-07,-3.03e-06,0.0,0 STARLINK-3901,1 52574U 22051AQ  23267.07707327 -.00000303  00000-0 -91658-6 0  9999,2 52574  53.2164 188.6577 0001529 103.6854 256.4308 15.08846264 76074,6917.861,95.437,540.784,538.669,0.0
52574.0,STARLINK-3901,PAYLOAD,2023-09-24 19:20:13,15.0884161,0.0001414,53.216,185.3904,93.5031,266.6122,-3.7675e-05,-8.88e-06,0.0,0 STARLINK-3901,1 52574U 22051AQ  23267.80571584 -.00000888  00000-0 -37675-4 0  9999,2 52574  53.2160 185.3904 0001414  93.5031 266.6122 15.08841610 76252,6917.875,95.437,540.719,538.762,0.0
52574.0,STARLINK-3901,PAYLOAD,2023-09-24 22:30:59,15.08844845,0.0001724,53.2157,184.7951,91.5005,268.6184,3.4291e-06,-2.34e-06,0.0,0 STARLINK-3901,1 52574U 22051AQ  23267.93819295 -.00000234  00000-0  34291-5 0  9993,2 52574  53.2157 184.7951 0001724  91.5005 268.6184 15.08844845 76204,6917.866,95.437,540.923,538.538,0.0
52574.0,STARLINK-3901,PAYLOAD,2023-09-25 01:41:45,15.08855575,0.0001329,53.2154,184.2015,88.4616,271.6529,0.00017571,2.511e-05,0.0,0 STARLINK-3901,1 52574U 22051AQ  23268.07066693  .00002511  00000-0  17571-3 0  9994,2 52574  53.2154 184.2015 0001329  88.4616 271.6529 15.08855575 76299,6917.833,95.437,540.617,538.778,0.0
52574.0,STARLINK-3901,PAYLOAD,2023-09-25 11:14:03,15.08861321,0.0001438,53.2155,182.4175,93.4953,266.6203,0.00025739,3.813e-05,0.0,0 STARLINK-3901,1 52574U 22051AQ  23268.46810139  .00003813  00000-0  25739-3 0  9990,2 52574  53.2155 182.4175 0001438  93.4953 266.6203 15.08861321 76286,6917.815,95.436,540.675,538.685,0.0
52574.0,STARLINK-3901,PAYLOAD,2023-09-25 22:21:46,15.08852896,0.0001293,53.2153,180.336,99.6125,260.5013,0.00011957,1.616e-05,0.0,0 STARLINK-3901,1 52574U 22051AQ  23268.93178492  .00001616  00000-0  11957-3 0  9997,2 52574  53.2153 180.3360 0001293  99.6125 260.5013 15.08852896 76352,6917.841,95.437,540.6,538.811,0.0
52574.0,STARLINK-3901,PAYLOAD,2023-09-26 01:32:32,15.08857717,0.0001382,53.2163,179.7406,85.2457,274.8693,0.00026461,3.928e-05,0.0,0 STARLINK-3901,1 52574U 22051AQ  23269.06426188  .00003928  00000-0  26461-3 0  9994,2 52574  53.2163 179.7406 0001382  85.2457 274.8693 15.08857717 76443,6917.826,95.436,540.647,538.735,0.0
52574.0,STARLINK-3901,PAYLOAD,2023-09-26 04:43:18,15.08861466,0.0001391,53.2164,179.1452,91.0946,269.0206,0.00030283,4.538e-05,0.0,0 STARLINK-3901,1 52574U 22051AQ  23269.19673842  .00004538  00000-0  30283-3 0  9994,2 52574  53.2164 179.1452 0001391  91.0946 269.0206 15.08861466 76393,6917.815,95.436,540.642,538.718,0.0
52574.0,STARLINK-3901,PAYLOAD,2023-09-27 02:58:43,15.08832243,0.0001423,53.2152,174.9819,99.687,260.4283,-0.00014202,-2.547e-05,0.0,0 STARLINK-3901,1 52574U 22051AQ  23270.12411662 -.00002547  00000-0 -14202-3 0  9992,2 52574  53.2152 174.9819 0001423  99.6870 260.4283 15.08832243 76601,6917.904,95.438,540.754,538.785,0.0
52574.0,STARLINK-3901,PAYLOAD,2023-09-27 10:55:40,15.08817977,0.0001711,53.2166,173.4962,90.4672,269.6517,-0.00027033,-4.585e-05,0.0,0 STARLINK-3901,1 52574U 22051AQ  23270.45532461 -.00004585  00000-0 -27033-3 0  9999,2 52574  53.2166 173.4962 0001711  90.4672 269.6517 15.08817977 76583,6917.948,95.439,540.996,538.629,0.0
52574.0,STARLINK-3901,PAYLOAD,2023-09-28 01:14:08,15.08823221,0.0001489,53.2165,170.8179,91.4036,268.7127,3.3145e-05,2.39e-06,0.0,0 STARLINK-3901,1 52574U 22051AQ  23271.05149067  .00000239  00000-0  33145-4 0  9994,2 52574  53.2165 170.8179 0001489  91.4036 268.7127 15.08823221 76744,6917.932,95.439,540.827,538.767,0.0
52574.0,STARLINK-3901,PAYLOAD,2023-09-28 21:54:09,15.08849791,0.0001422,53.2166,166.9519,96.1904,263.925,0.00067116,0.00010413,0.0,0 STARLINK-3901,1 52574U 22051AQ  23271.91261218  .00010413  00000-0  67116-3 0  9991,2 52574  53.2166 166.9519 0001422  96.1904 263.9250 15.08849791 76803,6917.85,95.437,540.699,538.732,0.0
52574.0,STARLINK-3901,PAYLOAD,2023-09-29 23:20:18,15.08863375,0.0001198,53.2163,162.195,99.4927,260.62,0.00047321,7.256e-05,0.0,0 STARLINK-3901,1 52574U 22051AQ  23272.97244109  .00007256  00000-0  47321-3 0  9995,2 52574  53.2163 162.1950 0001198  99.4927 260.6200 15.08863375 77037,6917.809,95.436,540.503,538.845,0.0
52574.0,STARLINK-3901,PAYLOAD,2023-09-30 16:49:33,15.0884376,0.0001287,53.2155,158.9249,93.4995,266.6144,9.4417e-05,1.215e-05,0.0,0 STARLINK-3901,1 52574U 22051AQ  23273.70108517  .00001215  00000-0  94417-4 0  9997,2 52574  53.2155 158.9249 0001287  93.4995 266.6144 15.08843760 77141,6917.869,95.437,540.624,538.844,0.0
52574.0,STARLINK-3901,PAYLOAD,2023-09-30 23:11:06,15.08840783,0.0001159,53.2146,157.7318,65.3303,294.781,4.5107e-05,4.3e-06,0.0,0 STARLINK-3901,1 52574U 22051AQ  23273.96604653  .00000430  00000-0  45107-4 0  9997,2 52574  53.2146 157.7318 0001159  65.3303 294.7810 15.08840783 77115,6917.878,95.438,540.545,538.941,0.0
52574.0,STARLINK-3901,PAYLOAD,2023-10-01 21:26:29,15.08858174,0.0001158,53.215,153.57,66.2061,293.9052,0.000661,0.00010253,0.0,0 STARLINK-3901,1 52574U 22051AQ  23274.89340168  .00010253  00000-0  66100-3 0  9997,2 52574  53.2150 153.5700 0001158  66.2061 293.9052 15.08858174 77256,6917.825,95.436,540.491,538.889,0.0
52574.0,STARLINK-3901,PAYLOAD,2023-10-02 02:12:38,15.08870253,0.000114,53.215,152.6789,67.4542,292.6571,0.00094207,0.00014749,0.0,0 STARLINK-3901,1 52574U 22051AQ  23275.09211723  .00014749  00000-0  94207-3 0  9997,2 52574  53.2150 152.6789 0001140  67.4542 292.6571 15.08870253 77356,6917.788,95.436,540.442,538.864,0.0
52574.0,STARLINK-3901,PAYLOAD,2023-10-02 08:34:12,15.08828597,0.0001317,53.2156,151.4909,80.7526,279.3615,-0.0002434,-4.158e-05,0.0,0 STARLINK-3901,1 52574U 22051AQ  23275.35708630 -.00004158  00000-0 -24340-3 0  9990,2 52574  53.2156 151.4909 0001317  80.7526 279.3615 15.08828597 77398,6917.915,95.438,540.691,538.869,0.0
